XRISM                   
1 57800U 23137A   23310.47237408  .00013590  00000+0  11015-2 0  9997
2 57800  31.0052 353.5127 0010381 154.5411 205.5736 14.98507763  9077
